{"fetched_at":"2026-03-29T16:36:15Z","count":15609,"tles":[{"name":"STARLINK-30106","line1":"1 56288U 23056C   26087.72239177  .00004689  00000+0  18438-3 0  9999","line2":"2 56288  43.0004 101.1916 0001291 269.9994  90.0709 15.26740747162953","category":"Starlink"}]}