{
  "norad_id": 56288,
  "name": "STARLINK-30106",
  "history": [
    {
      "epoch": "2026-03-28T17:20:14.648928Z",
      "apogee_km": 486.44937625623334,
      "perigee_km": 484.67716884585934,
      "latitude_deg": -2.4175115071262477e-05,
      "longitude_deg": 14.991779342700207,
      "height_km": 485.34002276343784,
      "semi_major_axis_km": 6863.700272551046,
      "eccentricity": 0.0001291,
      "inclination_deg": 43.0004,
      "raan_deg": 101.1916,
      "arg_perigee_deg": 269.9994,
      "mean_anomaly_deg": 90.0709,
      "mean_motion_rev_day": 15.26740747
    }
  ]
}